start=new Date('2022-02-25T00:00:00.000Z').valueOf();
sats=[{"DECAY_DATE":null,"SEMIMAJOR_AXIS":"6925.375","OBJECT_NAME":"STARLINK-1413","APOAPSIS":"548.164","OBJECT_TYPE":"PAYLOAD","COUNTRY_CODE":"US","CENTER_NAME":"EARTH","CLASSIFICATION_TYPE":"U","BSTAR":"0.00011009000000","PERIAPSIS":"546.315","FILE":"3320325","PERIOD":"95.593","SITE":"AFETR","MEAN_MOTION":"15.06391471","TLE_LINE1":"1 45689U 20035AJ  22055.72454886  .00001358  00000-0  11009-3 0  9991","RCS_SIZE":"LARGE","EPHEMERIS_TYPE":"0","GP_ID":"196899476","MEAN_MOTION_DOT":"0.00001358","EPOCH":"2022-02-24T17:23:21.021504","REV_AT_EPOCH":"9662","TIME_SYSTEM":"UTC","REF_FRAME":"TEME","TLE_LINE2":"2 45689  53.0553 193.5025 0001335  68.3358 291.7773 15.06391471 96621","MEAN_MOTION_DDOT":"0.0000000000000","OBJECT_ID":"2020-035AJ","ARG_OF_PERICENTER":"68.3358","MEAN_ANOMALY":"291.7773","ECCENTRICITY":"0.00013350","RA_OF_ASC_NODE":"193.5025","MEAN_ELEMENT_THEORY":"SGP4","INCLINATION":"53.0553","NORAD_CAT_ID":"45689","ELEMENT_SET_NO":"999","LAUNCH_DATE":"2020-06-04"},{"BSTAR":"0.00011199000000","CENTER_NAME":"EARTH","CLASSIFICATION_TYPE":"U","SITE":"AFETR","PERIOD":"95.644","PERIAPSIS":"548.759","FILE":"3320325","OBJECT_NAME":"STARLINK-1414","SEMIMAJOR_AXIS":"6927.839","DECAY_DATE":null,"COUNTRY_CODE":"US","APOAPSIS":"550.650","OBJECT_TYPE":"PAYLOAD","RA_OF_ASC_NODE":"193.2879","ECCENTRICITY":"0.00013650","MEAN_ANOMALY":"281.2765","LAUNCH_DATE":"2020-06-04","INCLINATION":"52.9995","NORAD_CAT_ID":"45690","ELEMENT_SET_NO":"999","MEAN_ELEMENT_THEORY":"SGP4","GP_ID":"196899728","RCS_SIZE":"LARGE","TLE_LINE1":"1 45690U 20035AK  22055.77560075  .00001353  00000-0  11199-3 0  9991","MEAN_MOTION":"15.05587657","EPHEMERIS_TYPE":"0","TLE_LINE2":"2 45690  52.9995 193.2879 0001365  78.8377 281.2765 15.05587657 96688","MEAN_MOTION_DDOT":"0.0000000000000","OBJECT_ID":"2020-035AK","REF_FRAME":"TEME","ARG_OF_PERICENTER":"78.8377","REV_AT_EPOCH":"9668","TIME_SYSTEM":"UTC","MEAN_MOTION_DOT":"0.00001353","EPOCH":"2022-02-24T18:36:51.904800"},{"RCS_SIZE":"LARGE","TLE_LINE1":"1 45691U 20035AL  22055.77614207  .00000606  00000-0  59569-4 0  9993","MEAN_MOTION":"15.06392340","EPHEMERIS_TYPE":"0","GP_ID":"196900478","REV_AT_EPOCH":"9672","TIME_SYSTEM":"UTC","TLE_LINE2":"2 45691  53.0529 193.2812 0001505  68.7536 291.3614 15.06392340 96726","OBJECT_ID":"2020-035AL","MEAN_MOTION_DDOT":"0.0000000000000","REF_FRAME":"TEME","ARG_OF_PERICENTER":"68.7536","MEAN_MOTION_DOT":"0.00000606","EPOCH":"2022-02-24T18:37:38.674848","ECCENTRICITY":"0.00015050","RA_OF_ASC_NODE":"193.2812","MEAN_ANOMALY":"291.3614","NORAD_CAT_ID":"45691","INCLINATION":"53.0529","ELEMENT_SET_NO":"999","LAUNCH_DATE":"2020-06-04","MEAN_ELEMENT_THEORY":"SGP4","OBJECT_NAME":"STARLINK-1415","DECAY_DATE":null,"SEMIMAJOR_AXIS":"6925.372","COUNTRY_CODE":"US","APOAPSIS":"548.279","OBJECT_TYPE":"PAYLOAD","BSTAR":"0.00005956900000","CLASSIFICATION_TYPE":"U","CENTER_NAME":"EARTH","PERIOD":"95.593","SITE":"AFETR","PERIAPSIS":"546.195","FILE":"3320325"},{"SEMIMAJOR_AXIS":"6925.372","DECAY_DATE":null,"OBJECT_NAME":"STARLINK-1416","APOAPSIS":"548.149","OBJECT_TYPE":"PAYLOAD","COUNTRY_CODE":"US","CLASSIFICATION_TYPE":"U","CENTER_NAME":"EARTH","BSTAR":"0.00009521800000","FILE":"3319938","PERIAPSIS":"546.325","SITE":"AFETR","PERIOD":"95.593","GP_ID":"196871075","RCS_SIZE":"LARGE","TLE_LINE1":"1 45692U 20035AM  22055.90147207  .00001137  00000-0  95218-4 0  9991","MEAN_MOTION":"15.06392441","EPHEMERIS_TYPE":"0","MEAN_MOTION_DOT":"0.00001137","EPOCH":"2022-02-24T21:38:07.186848","TLE_LINE2":"2 45692  53.0544 192.7225 0001317  71.6062 288.5070 15.06392441 96337","MEAN_MOTION_DDOT":"0.0000000000000","ARG_OF_PERICENTER":"71.6062","REF_FRAME":"TEME","OBJECT_ID":"2020-035AM","REV_AT_EPOCH":"9633","TIME_SYSTEM":"UTC","MEAN_ANOMALY":"288.5070","RA_OF_ASC_NODE":"192.7225","ECCENTRICITY":"0.00013170","MEAN_ELEMENT_THEORY":"SGP4","LAUNCH_DATE":"2020-06-04","INCLINATION":"53.0544","NORAD_CAT_ID":"45692","ELEMENT_SET_NO":"999"},{"EPHEMERIS_TYPE":"0","TLE_LINE1":"1 45693U 20035AN  22055.78720539  .00002118  00000-0  16109-3 0  9994","RCS_SIZE":"LARGE","MEAN_MOTION":"15.06396358","GP_ID":"196898977","EPOCH":"2022-02-24T18:53:34.545696","MEAN_MOTION_DOT":"0.00002118","TIME_SYSTEM":"UTC","REV_AT_EPOCH":"9671","OBJECT_ID":"2020-035AN","TLE_LINE2":"2 45693  53.0545 193.2287 0001550  66.4893 293.6258 15.06396358 96714","MEAN_MOTION_DDOT":"0.0000000000000","ARG_OF_PERICENTER":"66.4893","REF_FRAME":"TEME","MEAN_ANOMALY":"293.6258","ECCENTRICITY":"0.00015500","RA_OF_ASC_NODE":"193.2287","MEAN_ELEMENT_THEORY":"SGP4","ELEMENT_SET_NO":"999","INCLINATION":"53.0545","NORAD_CAT_ID":"45693","LAUNCH_DATE":"2020-06-04","DECAY_DATE":null,"SEMIMAJOR_AXIS":"6925.360","OBJECT_NAME":"STARLINK-1417","OBJECT_TYPE":"PAYLOAD","APOAPSIS":"548.298","COUNTRY_CODE":"US","CENTER_NAME":"EARTH","CLASSIFICATION_TYPE":"U","BSTAR":"0.00016109000000","FILE":"3320325","PERIAPSIS":"546.151","PERIOD":"95.592","SITE":"AFETR"},{"MEAN_MOTION_DDOT":"0.0000000000000","TLE_LINE2":"2 45694  53.0539 193.4803 0001475  68.9011 291.2135 15.06387312 96706","ARG_OF_PERICENTER":"68.9011","OBJECT_ID":"2020-035AP","REF_FRAME":"TEME","REV_AT_EPOCH":"9670","TIME_SYSTEM":"UTC","MEAN_MOTION_DOT":"0.00000501","EPOCH":"2022-02-24T17:28:39.334656","GP_ID":"196900228","RCS_SIZE":"LARGE","TLE_LINE1":"1 45694U 20035AP  22055.72823304  .00000501  00000-0  52516-4 0  9990","MEAN_MOTION":"15.06387312","EPHEMERIS_TYPE":"0","LAUNCH_DATE":"2020-06-04","NORAD_CAT_ID":"45694","INCLINATION":"53.0539","ELEMENT_SET_NO":"999","MEAN_ELEMENT_THEORY":"SGP4","RA_OF_ASC_NODE":"193.4803","ECCENTRICITY":"0.00014750","MEAN_ANOMALY":"291.2135","COUNTRY_CODE":"US","APOAPSIS":"548.274","OBJECT_TYPE":"PAYLOAD","OBJECT_NAME":"STARLINK-1419","SEMIMAJOR_AXIS":"6925.387","DECAY_DATE":null,"SITE":"AFETR","PERIOD":"95.593","PERIAPSIS":"546.231","FILE":"3320325","BSTAR":"0.00005251600000","CENTER_NAME":"EARTH","CLASSIFICATION_TYPE":"U"},{"LAUNCH_DATE":"2020-06-04","NORAD_CAT_ID":"45695","INCLINATION":"53.0524","ELEMENT_SET_NO":"999","MEAN_ELEMENT_THEORY":"SGP4","RA_OF_ASC_NODE":"173.8024","ECCENTRICITY":"0.00016230","MEAN_ANOMALY":"293.7613","OBJECT_ID":"2020-035AQ","TLE_LINE2":"2 45695  53.0524 173.8024 0001623  66.3546 293.7613 15.06401774 96985","MEAN_MOTION_DDOT":"0.0000000000000","REF_FRAME":"TEME","ARG_OF_PERICENTER":"66.3546","REV_AT_EPOCH":"9698","TIME_SYSTEM":"UTC","MEAN_MOTION_DOT":"-0.00001021","EPOCH":"2022-02-24T15:45:09.538560","GP_ID":"196899979","TLE_LINE1":"1 45695U 20035AQ  22055.65636040 -.00001021  00000-0 -49661-4 0  9999","RCS_SIZE":"LARGE","MEAN_MOTION":"15.06401774","EPHEMERIS_TYPE":"0","SITE":"AFETR","PERIOD":"95.592","FILE":"3320325","PERIAPSIS":"546.084","BSTAR":"-0.00004966100000","CENTER_NAME":"EARTH","CLASSIFICATION_TYPE":"U","COUNTRY_CODE":"US","APOAPSIS":"548.332","OBJECT_TYPE":"PAYLOAD","OBJECT_NAME":"STARLINK-1420","SEMIMAJOR_AXIS":"6925.343","DECAY_DATE":null},{"COUNTRY_CODE":"US","OBJECT_TYPE":"PAYLOAD","APOAPSIS":"548.626","OBJECT_NAME":"STARLINK-1422","SEMIMAJOR_AXIS":"6925.380","DECAY_DATE":null,"SITE":"AFETR","PERIOD":"95.593","PERIAPSIS":"545.864","FILE":"3320325","BSTAR":"-0.00006368800000","CLASSIFICATION_TYPE":"U","CENTER_NAME":"EARTH","TLE_LINE2":"2 45696  53.0541 193.1693 0001994  53.7609 306.3564 15.06389729 96715","OBJECT_ID":"2020-035AR","MEAN_MOTION_DDOT":"0.0000000000000","REF_FRAME":"TEME","ARG_OF_PERICENTER":"53.7609","TIME_SYSTEM":"UTC","REV_AT_EPOCH":"9671","EPOCH":"2022-02-24T19:09:30.005280","MEAN_MOTION_DOT":"-0.00001230","GP_ID":"196898727","EPHEMERIS_TYPE":"0","RCS_SIZE":"LARGE","TLE_LINE1":"1 45696U 20035AR  22055.79826395 -.00001230  00000-0 -63688-4 0  9996","MEAN_MOTION":"15.06389729","LAUNCH_DATE":"2020-06-04","ELEMENT_SET_NO":"999","NORAD_CAT_ID":"45696","INCLINATION":"53.0541","MEAN_ELEMENT_THEORY":"SGP4","RA_OF_ASC_NODE":"193.1693","ECCENTRICITY":"0.00019940","MEAN_ANOMALY":"306.3564"},{"MEAN_MOTION_DOT":"0.00001331","EPOCH":"2022-02-24T15:23:54.900096","TLE_LINE2":"2 45697  53.0550 173.8804 0001323  85.1297 274.9843 15.06396942 96987","REF_FRAME":"TEME","MEAN_MOTION_DDOT":"0.0000000000000","OBJECT_ID":"2020-035AS","ARG_OF_PERICENTER":"85.1297","REV_AT_EPOCH":"9698","TIME_SYSTEM":"UTC","GP_ID":"196899477","TLE_LINE1":"1 45697U 20035AS  22055.64160764  .00001331  00000-0  10822-3 0  9993","MEAN_MOTION":"15.06396942","RCS_SIZE":"LARGE","EPHEMERIS_TYPE":"0","MEAN_ELEMENT_THEORY":"SGP4","LAUNCH_DATE":"2020-06-04","NORAD_CAT_ID":"45697","INCLINATION":"53.0550","ELEMENT_SET_NO":"999","MEAN_ANOMALY":"274.9843","RA_OF_ASC_NODE":"173.8804","ECCENTRICITY":"0.00013230","APOAPSIS":"548.139","OBJECT_TYPE":"PAYLOAD","COUNTRY_CODE":"US","SEMIMAJOR_AXIS":"6925.358","DECAY_DATE":null,"OBJECT_NAME":"STARLINK-1351","FILE":"3320325","PERIAPSIS":"546.307","SITE":"AFETR","PERIOD":"95.592","CENTER_NAME":"EARTH","CLASSIFICATION_TYPE":"U","BSTAR":"0.00010822000000"},{"SEMIMAJOR_AXIS":"6925.383","DECAY_DATE":null,"OBJECT_NAME":"STARLINK-1370","APOAPSIS":"548.187","OBJECT_TYPE":"PAYLOAD","COUNTRY_CODE":"US","CENTER_NAME":"EARTH","CLASSIFICATION_TYPE":"U","BSTAR":"-0.00003355000000","FILE":"3320325","PERIAPSIS":"546.309","SITE":"AFETR","PERIOD":"95.593","GP_ID":"196899729","TLE_LINE1":"1 45698U 20035AT  22055.63055682 -.00000781  00000-0 -33550-4 0  9999","MEAN_MOTION":"15.06388707","RCS_SIZE":"LARGE","EPHEMERIS_TYPE":"0","MEAN_MOTION_DOT":"-0.00000781","EPOCH":"2022-02-24T15:08:00.109248","TLE_LINE2":"2 45698  53.0543 173.9351 0001356  68.1229 291.9904 15.06388707 96987","OBJECT_ID":"2020-035AT","MEAN_MOTION_DDOT":"0.0000000000000","REF_FRAME":"TEME","ARG_OF_PERICENTER":"68.1229","REV_AT_EPOCH":"9698","TIME_SYSTEM":"UTC","MEAN_ANOMALY":"291.9904","RA_OF_ASC_NODE":"173.9351","ECCENTRICITY":"0.00013560","MEAN_ELEMENT_THEORY":"SGP4","LAUNCH_DATE":"2020-06-04","INCLINATION":"53.0543","NORAD_CAT_ID":"45698","ELEMENT_SET_NO":"999"}];
